[{"OBJECT_NAME":"SHIYAN-4 (SY-4)","OBJECT_ID":"2011-068B","EPOCH":"2026-03-09T23:00:28.675872","MEAN_MOTION":14.31088676,"ECCENTRICITY":0.00240064,"INCLINATION":98.7036,"RA_OF_ASC_NODE":87.8563,"ARG_OF_PERICENTER":77.8488,"MEAN_ANOMALY":342.0096,"EPHEMERIS_TYPE":0,"CLASSIFICATION_TYPE":"U","NORAD_CAT_ID":37931,"ELEMENT_SET_NO":999,"REV_AT_EPOCH":74470,"BSTAR":0.00010117128,"MEAN_MOTION_DOT":2.23e-6,"MEAN_MOTION_DDOT":0},{"OBJECT_NAME":"DELTA 1 DEB","OBJECT_ID":"1972-058JX","EPOCH":"2026-03-09T16:55:38.153280","MEAN_MOTION":14.34865059,"ECCENTRICITY":0.00520417,"INCLINATION":99.0299,"RA_OF_ASC_NODE":36.1808,"ARG_OF_PERICENTER":57.4032,"MEAN_ANOMALY":67.421,"EPHEMERIS_TYPE":0,"CLASSIFICATION_TYPE":"U","NORAD_CAT_ID":42564,"ELEMENT_SET_NO":999,"REV_AT_EPOCH":62785,"BSTAR":0.0056464682,"MEAN_MOTION_DOT":0.00016276,"MEAN_MOTION_DDOT":0}]
